OBJECT_NAME,OBJECT_ID,EPOCH,MEAN_MOTION,ECCENTRICITY,INCLINATION,RA_OF_ASC_NODE,ARG_OF_PERICENTER,MEAN_ANOMALY,EPHEMERIS_TYPE,CLASSIFICATION_TYPE,NORAD_CAT_ID,ELEMENT_SET_NO,REV_AT_EPOCH,BSTAR,MEAN_MOTION_DOT,MEAN_MOTION_DDOT
COSMOS 2509 (RODNIK-S 15),2015-050C,2026-07-15T05:17:39.217056,12.42884736,.0014605,82.4870,60.8140,344.1220,15.9400,0,U,40922,999,49036,.51414E-3,.81E-6,0
LQSAT,2015-057A,2026-07-15T04:31:12.086112,14.76812514,.0016846,97.6686,188.1789,176.0755,184.0591,0,U,40958,999,57944,-.52946E-5,-.85E-6,0
LINGQIAO VIDEO A,2015-057B,2026-07-15T04:44:29.582304,14.77425073,.0016656,97.6626,189.6196,173.0260,187.1186,0,U,40959,999,57954,.10992E-4,.3E-6,0
LINGQIAO VIDEO B,2015-057C,2026-07-15T05:45:31.710240,14.77533394,.0016841,97.6591,190.8163,172.8721,187.2733,0,U,40960,999,57959,.85896E-4,.566E-5,0
JILIN-1,2015-057D,2026-07-15T04:09:24.022080,14.78201325,.0017228,97.6520,194.1522,166.9666,193.1994,0,U,40961,999,57974,.5608E-4,.359E-5,0
FOX-1A (AO-85),2015-058D,2026-07-15T02:53:18.945024,14.91088023,.0132354,64.7725,192.1668,45.8405,315.3496,0,U,40967,999,11773,.15548E-3,.1645E-4,0
SINOD-D 1,2015-058E,2026-07-15T02:07:04.070784,14.96087409,.0121026,64.7734,171.5240,42.1982,318.8369,0,U,40968,999,12083,.22774E-3,.2792E-4,0
DAMPE,2015-078A,2026-07-15T05:03:16.786080,15.30852767,.001159,97.4557,201.8166,345.4384,14.6521,0,U,41173,999,58883,.2037E-4,.53E-5,0
ORBCOMM FM114,2015-081A,2026-07-15T03:01:57.853056,14.58887144,.0002958,47.0032,229.9092,308.0519,52.0099,0,U,41179,999,56183,.54063E-4,.84E-6,0
ORBCOMM FM110,2015-081D,2026-07-15T01:05:53.085984,14.58917715,.0003599,47.0006,229.7163,222.3063,137.7545,0,U,41182,999,56169,.66035E-4,.141E-5,0
ORBCOMM FM112,2015-081F,2026-07-14T12:52:18.000480,14.58938034,.00037551,46.9980,140.9155,325.1012,34.9627,0,U,41184,999,56294,.95890912E-4,.282E-5,0
ORBCOMM FM113,2015-081G,2026-07-15T04:46:12.087264,14.58882057,.000223,46.9999,138.1739,321.4660,38.6066,0,U,41185,999,56302,.59625E-4,.111E-5,0
ORBCOMM FM108,2015-081J,2026-07-15T00:34:14.458080,14.58910524,.0002658,47.0055,50.5822,321.5969,38.4727,0,U,41187,999,56414,.92802E-4,.268E-5,0
ORBCOMM FM117,2015-081K,2026-07-14T23:44:53.779776,14.58897499,.0003074,47.0018,49.3713,328.6670,31.4032,0,U,41188,999,56418,.88052E-4,.245E-5,0
ORBCOMM FM116,2015-081L,2026-07-15T04:12:09.211104,14.58905811,.0001538,47.0015,138.2828,229.7096,130.3655,0,U,41189,999,56302,.53674E-4,.83E-6,0
CHUBUSAT-2,2016-012B,2026-07-15T00:49:24.458304,15.21141348,.0008576,30.9967,138.6031,1.4028,358.6636,0,U,41338,999,57266,.13864E-3,.3279E-4,0
CHUBUSAT-3,2016-012C,2026-07-15T04:52:51.537792,15.18768364,.0008848,31.0036,147.7523,348.4818,11.5619,0,U,41339,999,57246,.11287E-3,.2514E-4,0
ZIYUAN 3-02 (ZY 3-02),2016-033A,2026-07-15T05:01:50.666880,15.21434379,.0014079,97.3829,271.4450,184.8524,175.2578,0,U,41556,999,56224,.13231E-3,.2909E-4,0
CARTOSAT-2C,2016-040A,2026-07-15T04:25:52.616928,15.19264086,.0009554,97.4469,255.7752,44.8870,315.3136,0,U,41599,999,55796,.12673E-3,.2606E-4,0
LAPAN-A3,2016-040E,2026-07-15T04:33:46.266912,15.33277755,.000825,97.1505,191.4207,276.2287,83.8016,0,U,41603,999,55910,.592E-4,.183E-4,0
GAOFEN-3,2016-049A,2026-07-15T04:22:08.569632,14.42218984,.0001779,98.4010,203.5457,84.9356,275.2037,0,U,41727,999,52268,.4097E-4,.92E-6,0
PRATHAM,2016-059A,2026-07-14T22:22:04.691136,14.67225903,.0032399,97.8336,191.5725,128.5786,231.8329,0,U,41783,999,52358,.65135E-4,.323E-5,0
ALSAT-1N,2016-059G,2026-07-15T05:46:39.078912,14.69349242,.002745,97.8010,198.3431,97.4073,263.0254,0,U,41789,999,52412,.7931E-4,.424E-5,0
YUNHAI-1 01,2016-068A,2026-07-15T04:10:11.359776,14.32722055,.0003185,98.5843,206.9206,348.3782,11.7328,0,U,41857,999,50583,.68541E-4,.143E-5,0
RESOURCESAT-2A,2016-074A,2026-07-15T03:40:51.957696,14.21607962,.0002392,98.7528,269.4277,29.1640,330.9670,0,U,41877,999,49827,-.80972E-4,-.222E-5,0
TANSAT,2016-081A,2026-07-15T05:03:37.909152,14.59971842,.0019438,98.5365,197.2981,220.0554,139.9213,0,U,41898,999,50871,.69414E-4,.283E-5,0
JILIN-1 03,2017-002B,2026-07-15T04:35:15.886176,15.42230935,.0007877,97.1946,202.8936,79.5052,280.7082,0,U,41914,999,52617,.17915E-3,.7618E-4,0
CARTOSAT-2D,2017-008A,2026-07-15T03:36:46.218816,15.19286662,.0006022,97.4098,254.9315,138.7095,221.4596,0,U,41948,999,52182,.14428E-3,.2977E-4,0
